{
  "type": "FeatureCollection",
  "features": [
    {
      "type": "Feature",
      "properties": {
        "norad_id": 66877,
        "name": "ZQ-3 R/B",
        "group": "last-30-days",
        "lat": -55.22584337726607,
        "lon": -98.41801513174728,
        "alt_km": 168.12034685550407,
        "timestamp": "2025-12-24T11:32:58.719927+00:00",
        "meta_object_name": "ZQ-3 R/B",
        "meta_object_id": "2025-282A",
        "meta_epoch": "2025-12-24T03:53:49.392672",
        "meta_mean_motion": 14.82884481,
        "meta_eccentricity": 0.0682279,
        "meta_inclination": 56.949,
        "meta_ra_of_asc_node": 13.1714,
        "meta_arg_of_pericenter": 240.1158,
        "meta_mean_anomaly": 113.0416,
        "meta_ephemeris_type": 0,
        "meta_classification_type": "U",
        "meta_norad_cat_id": 66877,
        "meta_element_set_no": 999,
        "meta_rev_at_epoch": 307,
        "meta_bstar": 0.00017131,
        "meta_mean_motion_dot": 0.00998294,
        "meta_mean_motion_ddot": 7.8945e-06,
        "tle_line1": "1 66877U 25282A   25358.16237723  .00998294  78945-5  17131-3 0  9992",
        "tle_line2": "2 66877  56.9490  13.1714 0682279 240.1158 113.0416 14.82884481  3075"
      },
      "geometry": {
        "type": "Point",
        "coordinates": [
          -98.41801513174728,
          -55.22584337726607
        ]
      }
    },
    {
      "type": "Feature",
      "properties": {
        "norad_id": 66878,
        "name": "STARLINK-35866",
        "group": "last-30-days",
        "lat": 44.79102417257168,
        "lon": 63.316964464261254,
        "alt_km": 365.96183463545094,
        "timestamp": "2025-12-24T11:32:58.719951+00:00",
        "meta_object_name": "STARLINK-35866",
        "meta_object_id": "2025-283A",
        "meta_epoch": "2025-12-24T04:00:01.998720",
        "meta_mean_motion": 15.66562379,
        "meta_eccentricity": 0.0001352,
        "meta_inclination": 53.1593,
        "meta_ra_of_asc_node": 16.7603,
        "meta_arg_of_pericenter": 78.9955,
        "meta_mean_anomaly": 8.621,
        "meta_ephemeris_type": 0,
        "meta_classification_type": "U",
        "meta_norad_cat_id": 66878,
        "meta_element_set_no": 999,
        "meta_rev_at_epoch": 426,
        "meta_bstar": -0.021457,
        "meta_mean_motion_dot": -0.02011174,
        "meta_mean_motion_ddot": 0,
        "tle_line1": "1 66878U 25283A   25358.16668980 -.02011174  00000+0 -21457-1 0  9999",
        "tle_line2": "2 66878  53.1593  16.7603 0001352  78.9955   8.6210 15.66562379  4269"
      },
      "geometry": {
        "type": "Point",
        "coordinates": [
          63.316964464261254,
          44.79102417257168
        ]
      }
    },
    {
      "type": "Feature",
      "properties": {
        "norad_id": 66879,
        "name": "STARLINK-35749",
        "group": "last-30-days",
        "lat": 46.7471395107693,
        "lon": 68.0469180458842,
        "alt_km": 365.583742680019,
        "timestamp": "2025-12-24T11:32:58.719963+00:00",
        "meta_object_name": "STARLINK-35749",
        "meta_object_id": "2025-283B",
        "meta_epoch": "2025-12-24T04:00:01.998720",
        "meta_mean_motion": 15.66564272,
        "meta_eccentricity": 0.000146,
        "meta_inclination": 53.1594,
        "meta_ra_of_asc_node": 16.7519,
        "meta_arg_of_pericenter": 80.0731,
        "meta_mean_anomaly": 11.3759,
        "meta_ephemeris_type": 0,
        "meta_classification_type": "U",
        "meta_norad_cat_id": 66879,
        "meta_element_set_no": 999,
        "meta_rev_at_epoch": 426,
        "meta_bstar": -0.021485,
        "meta_mean_motion_dot": -0.02013653,
        "meta_mean_motion_ddot": 0,
        "tle_line1": "1 66879U 25283B   25358.16668980 -.02013653  00000+0 -21485-1 0  9995",
        "tle_line2": "2 66879  53.1594  16.7519 0001460  80.0731  11.3759 15.66564272  4266"
      },
      "geometry": {
        "type": "Point",
        "coordinates": [
          68.0469180458842,
          46.7471395107693
        ]
      }
    },
    {
      "type": "Feature",
      "properties": {
        "norad_id": 66880,
        "name": "STARLINK-35844",
        "group": "last-30-days",
        "lat": 45.7941821493978,
        "lon": 65.64135011972172,
        "alt_km": 365.8237029176489,
        "timestamp": "2025-12-24T11:32:58.719973+00:00",
        "meta_object_name": "STARLINK-35844",
        "meta_object_id": "2025-283C",
        "meta_epoch": "2025-12-24T04:00:01.998720",
        "meta_mean_motion": 15.66562295,
        "meta_eccentricity": 0.0001325,
        "meta_inclination": 53.1596,
        "meta_ra_of_asc_node": 16.7562,
        "meta_arg_of_pericenter": 79.7324,
        "meta_mean_anomaly": 9.8017,
        "meta_ephemeris_type": 0,
        "meta_classification_type": "U",
        "meta_norad_cat_id": 66880,
        "meta_element_set_no": 999,
        "meta_rev_at_epoch": 426,
        "meta_bstar": -0.021459,
        "meta_mean_motion_dot": -0.0201124,
        "meta_mean_motion_ddot": 0,
        "tle_line1": "1 66880U 25283C   25358.16668980 -.02011240  00000+0 -21459-1 0  9998",
        "tle_line2": "2 66880  53.1596  16.7562 0001325  79.7324   9.8017 15.66562295  4263"
      },
      "geometry": {
        "type": "Point",
        "coordinates": [
          65.64135011972172,
          45.7941821493978
        ]
      }
    },
    {
      "type": "Feature",
      "properties": {
        "norad_id": 66881,
        "name": "STARLINK-35860",
        "group": "last-30-days",
        "lat": 47.648860966529334,
        "lon": 70.53921923128438,
        "alt_km": 365.45840977812804,
        "timestamp": "2025-12-24T11:32:58.719983+00:00",
        "meta_object_name": "STARLINK-35860",
        "meta_object_id": "2025-283D",
        "meta_epoch": "2025-12-24T04:00:01.998720",
        "meta_mean_motion": 15.66560849,
        "meta_eccentricity": 0.0001439,
        "meta_inclination": 53.1596,
        "meta_ra_of_asc_node": 16.7479,
        "meta_arg_of_pericenter": 79.7917,
        "meta_mean_anomaly": 13.5769,
        "meta_ephemeris_type": 0,
        "meta_classification_type": "U",
        "meta_norad_cat_id": 66881,
        "meta_element_set_no": 999,
        "meta_rev_at_epoch": 426,
        "meta_bstar": -0.021447,
        "meta_mean_motion_dot": -0.02010251,
        "meta_mean_motion_ddot": 0,
        "tle_line1": "1 66881U 25283D   25358.16668980 -.02010251  00000+0 -21447-1 0  9997",
        "tle_line2": "2 66881  53.1596  16.7479 0001439  79.7917  13.5769 15.66560849  4264"
      },
      "geometry": {
        "type": "Point",
        "coordinates": [
          70.53921923128438,
          47.648860966529334
        ]
      }
    },
    {
      "type": "Feature",
      "properties": {
        "norad_id": 66882,
        "name": "STARLINK-35912",
        "group": "last-30-days",
        "lat": 48.493778031206425,
        "lon": 73.11515986062733,
        "alt_km": 365.27012132058735,
        "timestamp": "2025-12-24T11:32:58.719997+00:00",
        "meta_object_name": "STARLINK-35912",
        "meta_object_id": "2025-283E",
        "meta_epoch": "2025-12-24T04:00:01.998720",
        "meta_mean_motion": 15.66552156,
        "meta_eccentricity": 0.0001504,
        "meta_inclination": 53.1595,
        "meta_ra_of_asc_node": 16.7442,
        "meta_arg_of_pericenter": 74.6299,
        "meta_mean_anomaly": 20.6584,
        "meta_ephemeris_type": 0,
        "meta_classification_type": "U",
        "meta_norad_cat_id": 66882,
        "meta_element_set_no": 999,
        "meta_rev_at_epoch": 426,
        "meta_bstar": -0.021319,
        "meta_mean_motion_dot": -0.01999158,
        "meta_mean_motion_ddot": 0,
        "tle_line1": "1 66882U 25283E   25358.16668980 -.01999158  00000+0 -21319-1 0  9997",
        "tle_line2": "2 66882  53.1595  16.7442 0001504  74.6299  20.6584 15.66552156  4260"
      },
      "geometry": {
        "type": "Point",
        "coordinates": [
          73.11515986062733,
          48.493778031206425
        ]
      }
    },
    {
      "type": "Feature",
      "properties": {
        "norad_id": 66883,
        "name": "STARLINK-35947",
        "group": "last-30-days",
        "lat": 49.282058109049785,
        "lon": 75.78554309521598,
        "alt_km": 365.2619068327158,
        "timestamp": "2025-12-24T11:32:58.720010+00:00",
        "meta_object_name": "STARLINK-35947",
        "meta_object_id": "2025-283F",
        "meta_epoch": "2025-12-24T04:00:01.998720",
        "meta_mean_motion": 15.66565883,
        "meta_eccentricity": 0.0001373,
        "meta_inclination": 53.1595,
        "meta_ra_of_asc_node": 16.7406,
        "meta_arg_of_pericenter": 77.0508,
        "meta_mean_anomaly": 20.1561,
        "meta_ephemeris_type": 0,
        "meta_classification_type": "U",
        "meta_norad_cat_id": 66883,
        "meta_element_set_no": 999,
        "meta_rev_at_epoch": 431,
        "meta_bstar": -0.021596,
        "meta_mean_motion_dot": -0.02022869,
        "meta_mean_motion_ddot": 0,
        "tle_line1": "1 66883U 25283F   25358.16668980 -.02022869  00000+0 -21596-1 0  9992",
        "tle_line2": "2 66883  53.1595  16.7406 0001373  77.0508  20.1561 15.66565883  4312"
      },
      "geometry": {
        "type": "Point",
        "coordinates": [
          75.78554309521598,
          49.282058109049785
        ]
      }
    }
  ]
}